{"type": "FeatureCollection", "features": [{"type": "Feature", "properties": {"name": "Southern Company (greenfield)", "owner": "Southern Company", "etype": "Nuclear", "status": "Nuclear", "county": "Stewart County", "state": "Georgia", "GEOID": "13259", "site_county": "Stewart County, GA", "margin_2531": -0.01, "margin_2639": -0.37, "margin_2531_mc": -0.01, "margin_2639_mc": -0.37, "loc_note": "Approximate location (no surveyed coordinate published).", "ffe": false, "ffe_unemp_2531": false, "ffe_unemp_2639": false, "coal_2639": false, "coal_2531": false}, "geometry": {"type": "Point", "coordinates": [-84.8471, 32.075]}}, {"type": "Feature", "properties": {"name": "Vogtle", "owner": "Southern Company", "etype": "Nuclear", "status": "Nuclear", "county": "Burke County", "state": "Georgia", "GEOID": "13033", "site_county": "Burke County, GA", "margin_2531": 0.34, "margin_2639": -0.16, "margin_2531_mc": 0.34, "margin_2639_mc": -0.16, "ffe": false, "ffe_unemp_2531": false, "ffe_unemp_2639": false, "coal_2639": true, "coal_2531": true}, "geometry": {"type": "Point", "coordinates": [-81.7606, 33.1433]}}, {"type": "Feature", "properties": {"name": "Farley", "owner": "Southern Company", "etype": "Nuclear", "status": "Nuclear", "county": "Houston County", "state": "Alabama", "GEOID": "01069", "site_county": "Houston County, AL", "margin_2531": -0.91, "margin_2639": -1.5, "margin_2531_mc": -0.85, "margin_2639_mc": -1.45, "ffe": false, "ffe_unemp_2531": false, "ffe_unemp_2639": false, "coal_2639": false, "coal_2531": false}, "geometry": {"type": "Point", "coordinates": [-85.1117, 31.2231]}}, {"type": "Feature", "properties": {"name": "Hatch", "owner": "Southern Company", "etype": "Nuclear", "status": "Nuclear", "county": "Appling County", "state": "Georgia", "GEOID": "13001", "site_county": "Appling County, GA", "margin_2531": -0.3, "margin_2639": -0.72, "margin_2531_mc": -0.3, "margin_2639_mc": -0.72, "ffe": false, "ffe_unemp_2531": false, "ffe_unemp_2639": false, "coal_2639": false, "coal_2531": false}, "geometry": {"type": "Point", "coordinates": [-82.3439, 31.9342]}}, {"type": "Feature", "properties": {"name": "Fermi Unit 3", "owner": "DTE Electric", "etype": "Nuclear", "status": "Nuclear", "county": "Monroe County", "state": "Michigan", "GEOID": "26115", "site_county": "Monroe County, MI", "margin_2531": 1.25, "margin_2639": 1.25, "margin_2531_mc": 1.25, "margin_2639_mc": 1.25, "ffe": true, "ffe_unemp_2531": true, "ffe_unemp_2639": true, "coal_2639": false, "coal_2531": false}, "geometry": {"type": "Point", "coordinates": [-83.2575, 41.9628]}}, {"type": "Feature", "properties": {"name": "William States Lee III", "owner": "Duke", "etype": "Nuclear", "status": "Nuclear", "county": "Cherokee County", "state": "South Carolina", "GEOID": "45021", "site_county": "Cherokee County, SC", "margin_2531": 0.75, "margin_2639": 0.71, "margin_2531_mc": 1.65, "margin_2639_mc": 1.53, "ffe": false, "ffe_unemp_2531": false, "ffe_unemp_2639": false, "coal_2639": false, "coal_2531": false}, "geometry": {"type": "Point", "coordinates": [-81.5111, 35.0333]}}, {"type": "Feature", "properties": {"name": "Levy", "owner": "Duke", "etype": "Nuclear", "status": "Nuclear", "county": "Levy County", "state": "Florida", "GEOID": "12075", "site_county": "Levy County, FL", "margin_2531": 0.06, "margin_2639": 0.53, "margin_2531_mc": 0.06, "margin_2639_mc": 0.53, "ffe": true, "ffe_unemp_2531": false, "ffe_unemp_2639": true, "coal_2639": true, "coal_2531": true}, "geometry": {"type": "Point", "coordinates": [-82.6217, 29.0733]}}, {"type": "Feature", "properties": {"name": "Shearon Harris", "owner": "Duke", "etype": "Nuclear", "status": "Nuclear", "county": "Wake County", "state": "North Carolina", "GEOID": "37183", "site_county": "Wake County, NC", "margin_2531": -0.9, "margin_2639": -1.06, "margin_2531_mc": -0.81, "margin_2639_mc": -0.95, "ffe": false, "ffe_unemp_2531": false, "ffe_unemp_2639": false, "coal_2639": true, "coal_2531": true}, "geometry": {"type": "Point", "coordinates": [-78.955, 35.6333]}}, {"type": "Feature", "properties": {"name": "Brunswick", "owner": "Duke", "etype": "Nuclear", "status": "Nuclear", "county": "Brunswick County", "state": "North Carolina", "GEOID": "37019", "site_county": "Brunswick County, NC", "margin_2531": 0.54, "margin_2639": 0.69, "margin_2531_mc": 0.54, "margin_2639_mc": 0.75, "ffe": false, "ffe_unemp_2531": false, "ffe_unemp_2639": false, "coal_2639": false, "coal_2531": false}, "geometry": {"type": "Point", "coordinates": [-78.0103, 33.9583]}}, {"type": "Feature", "properties": {"name": "Catawba", "owner": "Duke", "etype": "Nuclear", "status": "Nuclear", "county": "York County", "state": "South Carolina", "GEOID": "45091", "site_county": "York County, SC", "margin_2531": -0.39, "margin_2639": -0.38, "margin_2531_mc": -0.39, "margin_2639_mc": -0.38, "ffe": false, "ffe_unemp_2531": false, "ffe_unemp_2639": false, "coal_2639": false, "coal_2531": false}, "geometry": {"type": "Point", "coordinates": [-81.07, 35.0517]}}, {"type": "Feature", "properties": {"name": "McGuire", "owner": "Duke", "etype": "Nuclear", "status": "Nuclear", "county": "Mecklenburg County", "state": "North Carolina", "GEOID": "37119", "site_county": "Mecklenburg County, NC", "margin_2531": -0.39, "margin_2639": -0.38, "margin_2531_mc": -0.39, "margin_2639_mc": -0.38, "ffe": false, "ffe_unemp_2531": false, "ffe_unemp_2639": false, "coal_2639": false, "coal_2531": false}, "geometry": {"type": "Point", "coordinates": [-80.9483, 35.4325]}}, {"type": "Feature", "properties": {"name": "Oconee", "owner": "Duke", "etype": "Nuclear", "status": "Nuclear", "county": "Oconee County", "state": "South Carolina", "GEOID": "45073", "site_county": "Oconee County, SC", "margin_2531": 0.75, "margin_2639": 0.71, "margin_2531_mc": 0.75, "margin_2639_mc": 0.71, "ffe": false, "ffe_unemp_2531": false, "ffe_unemp_2639": false, "coal_2639": false, "coal_2531": false}, "geometry": {"type": "Point", "coordinates": [-82.8981, 34.7939]}}, {"type": "Feature", "properties": {"name": "H.B. Robinson", "owner": "Duke", "etype": "Nuclear", "status": "Nuclear", "county": "Darlington County", "state": "South Carolina", "GEOID": "45031", "site_county": "Darlington County, SC", "margin_2531": 0.52, "margin_2639": 0.55, "margin_2531_mc": 0.52, "margin_2639_mc": 0.55, "ffe": false, "ffe_unemp_2531": false, "ffe_unemp_2639": false, "coal_2639": true, "coal_2531": true}, "geometry": {"type": "Point", "coordinates": [-80.1583, 34.4028]}}, {"type": "Feature", "properties": {"name": "Cyrstal River", "owner": "Duke", "etype": "Nuclear", "status": "Nuclear", "county": "Citrus County", "state": "Florida", "GEOID": "12017", "site_county": "Citrus County, FL", "margin_2531": 0.98, "margin_2639": 1.5, "margin_2531_mc": 0.98, "margin_2639_mc": 1.5, "ffe": false, "ffe_unemp_2531": false, "ffe_unemp_2639": false, "coal_2639": true, "coal_2531": true}, "geometry": {"type": "Point", "coordinates": [-82.6983, 28.9575]}}, {"type": "Feature", "properties": {"name": "North Anna", "owner": "Dominion", "etype": "Nuclear", "status": "Nuclear", "county": "Louisa County", "state": "Virginia", "GEOID": "51109", "site_county": "Louisa County, VA", "margin_2531": -0.98, "margin_2639": -0.74, "margin_2531_mc": -0.98, "margin_2639_mc": -0.74, "ffe": true, "ffe_unemp_2531": false, "ffe_unemp_2639": false, "coal_2639": false, "coal_2531": false}, "geometry": {"type": "Point", "coordinates": [-77.7894, 38.0606]}}, {"type": "Feature", "properties": {"name": "Millstone", "owner": "Dominion", "etype": "Nuclear", "status": "Nuclear", "county": "", "state": "Connecticut", "GEOID": "09011", "site_county": "Southeastern Connecticut Planning Region, CT", "margin_2531": -0.93, "margin_2639": -0.43, "margin_2531_mc": -0.8, "margin_2639_mc": -0.22, "ffe": false, "ffe_unemp_2531": false, "ffe_unemp_2639": false, "coal_2639": false, "coal_2531": false}, "geometry": {"type": "Point", "coordinates": [-72.1677, 41.3105]}}, {"type": "Feature", "properties": {"name": "Surry", "owner": "Dominion", "etype": "Nuclear", "status": "Nuclear", "county": "Surry County", "state": "Virginia", "GEOID": "51181", "site_county": "Surry County, VA", "margin_2531": -0.18, "margin_2639": 0.12, "margin_2531_mc": -0.18, "margin_2639_mc": 0.12, "ffe": false, "ffe_unemp_2531": false, "ffe_unemp_2639": false, "coal_2639": false, "coal_2531": false}, "geometry": {"type": "Point", "coordinates": [-76.6978, 37.1656]}}, {"type": "Feature", "properties": {"name": "Turkey Point", "owner": "NextEra", "etype": "Nuclear", "status": "Nuclear", "county": "Miami-Dade County", "state": "Florida", "GEOID": "12086", "site_county": "Miami-Dade County, FL", "margin_2531": -1.15, "margin_2639": -0.98, "margin_2531_mc": -1.06, "margin_2639_mc": -0.88, "ffe": false, "ffe_unemp_2531": false, "ffe_unemp_2639": false, "coal_2639": false, "coal_2531": false}, "geometry": {"type": "Point", "coordinates": [-80.3306, 25.4342]}}, {"type": "Feature", "properties": {"name": "Point Beach", "owner": "NextEra", "etype": "Nuclear", "status": "Nuclear", "county": "Manitowoc County", "state": "Wisconsin", "GEOID": "55071", "site_county": "Manitowoc County, WI", "margin_2531": -0.77, "margin_2639": -0.8, "margin_2531_mc": -0.77, "margin_2639_mc": -0.8, "ffe": false, "ffe_unemp_2531": false, "ffe_unemp_2639": false, "coal_2639": false, "coal_2531": false}, "geometry": {"type": "Point", "coordinates": [-87.5367, 44.2811]}}, {"type": "Feature", "properties": {"name": "Seabrook", "owner": "NextEra", "etype": "Nuclear", "status": "Nuclear", "county": "Rockingham County", "state": "New Hampshire", "GEOID": "33015", "site_county": "Rockingham County, NH", "margin_2531": -0.32, "margin_2639": -0.08, "margin_2531_mc": -0.18, "margin_2639_mc": 0.01, "ffe": false, "ffe_unemp_2531": false, "ffe_unemp_2639": false, "coal_2639": false, "coal_2531": false}, "geometry": {"type": "Point", "coordinates": [-70.8508, 42.8989]}}, {"type": "Feature", "properties": {"name": "St. Lucie", "owner": "NextEra", "etype": "Nuclear", "status": "Nuclear", "county": "St. Lucie County", "state": "Florida", "GEOID": "12111", "site_county": "St. Lucie County, FL", "margin_2531": -0.21, "margin_2639": 0.16, "margin_2531_mc": -0.21, "margin_2639_mc": 0.16, "ffe": false, "ffe_unemp_2531": false, "ffe_unemp_2639": false, "coal_2639": false, "coal_2531": false}, "geometry": {"type": "Point", "coordinates": [-80.2464, 27.3486]}}, {"type": "Feature", "properties": {"name": "Duane Arnold", "owner": "NextEra", "etype": "Nuclear", "status": "Nuclear", "county": "Linn County", "state": "Iowa", "GEOID": "19113", "site_county": "Linn County, IA", "margin_2531": -0.68, "margin_2639": -0.5, "margin_2531_mc": -0.68, "margin_2639_mc": -0.5, "ffe": false, "ffe_unemp_2531": false, "ffe_unemp_2639": false, "coal_2639": false, "coal_2531": false}, "geometry": {"type": "Point", "coordinates": [-91.7772, 42.1006]}}, {"type": "Feature", "properties": {"name": "VC Summer", "owner": "Brookfield", "etype": "Nuclear", "status": "Nuclear", "county": "Fairfield County", "state": "South Carolina", "GEOID": "45039", "site_county": "Fairfield County, SC", "margin_2531": 0.01, "margin_2639": 0.0, "margin_2531_mc": 0.25, "margin_2639_mc": 0.24, "ffe": true, "ffe_unemp_2531": true, "ffe_unemp_2639": true, "coal_2639": false, "coal_2531": false}, "geometry": {"type": "Point", "coordinates": [-81.3147, 34.2986]}}, {"type": "Feature", "properties": {"name": "South Texas Project (ABWR)", "owner": "STP Nuclear Operating Company (NRG, CPS Energy, Austin Energy)", "etype": "Nuclear", "status": "Nuclear", "county": "Matagorda County", "state": "Texas", "GEOID": "48321", "site_county": "Matagorda County, TX", "margin_2531": 1.18, "margin_2639": 0.99, "margin_2531_mc": 1.64, "margin_2639_mc": 1.47, "ffe": true, "ffe_unemp_2531": true, "ffe_unemp_2639": true, "coal_2639": false, "coal_2531": false}, "geometry": {"type": "Point", "coordinates": [-96.0489, 28.7956]}}, {"type": "Feature", "properties": {"name": "Grand Gulf", "owner": "Entergy", "etype": "Nuclear", "status": "Nuclear", "county": "Claiborne County", "state": "Mississippi", "GEOID": "28021", "site_county": "Claiborne County, MS", "margin_2531": 0.1, "margin_2639": 0.73, "margin_2531_mc": 0.1, "margin_2639_mc": 0.73, "ffe": true, "ffe_unemp_2531": true, "ffe_unemp_2639": true, "coal_2639": false, "coal_2531": false}, "geometry": {"type": "Point", "coordinates": [-91.0478, 32.0072]}}, {"type": "Feature", "properties": {"name": "River Bend", "owner": "Entergy", "etype": "Nuclear", "status": "Nuclear", "county": "West Feliciana Parish", "state": "Louisiana", "GEOID": "22125", "site_county": "West Feliciana Parish, LA", "margin_2531": 0.06, "margin_2639": -0.21, "margin_2531_mc": 0.16, "margin_2639_mc": -0.09, "ffe": true, "ffe_unemp_2531": true, "ffe_unemp_2639": false, "coal_2639": false, "coal_2531": false}, "geometry": {"type": "Point", "coordinates": [-91.3333, 30.7567]}}, {"type": "Feature", "properties": {"name": "Arkansas Nuclear One", "owner": "Entergy", "etype": "Nuclear", "status": "Nuclear", "county": "Pope County", "state": "Arkansas", "GEOID": "05115", "site_county": "Pope County, AR", "margin_2531": -0.08, "margin_2639": 0.3, "margin_2531_mc": -0.08, "margin_2639_mc": 0.35, "ffe": true, "ffe_unemp_2531": false, "ffe_unemp_2639": true, "coal_2639": false, "coal_2531": false}, "geometry": {"type": "Point", "coordinates": [-93.231, 35.311]}}, {"type": "Feature", "properties": {"name": "Waterford", "owner": "Entergy", "etype": "Nuclear", "status": "Nuclear", "county": "St. Charles Parish", "state": "Louisiana", "GEOID": "22089", "site_county": "St. Charles Parish, LA", "margin_2531": 0.38, "margin_2639": 0.07, "margin_2531_mc": 0.38, "margin_2639_mc": 0.07, "ffe": true, "ffe_unemp_2531": true, "ffe_unemp_2639": true, "coal_2639": false, "coal_2531": false}, "geometry": {"type": "Point", "coordinates": [-90.4711, 29.9953]}}, {"type": "Feature", "properties": {"name": "Clinton", "owner": "Constellation Energy", "etype": "Nuclear", "status": "Nuclear", "county": "De Witt County", "state": "Illinois", "GEOID": "17039", "site_county": "De Witt County, IL", "margin_2531": 0.34, "margin_2639": -0.05, "margin_2531_mc": 0.34, "margin_2639_mc": -0.05, "ffe": true, "ffe_unemp_2531": true, "ffe_unemp_2639": false, "coal_2639": false, "coal_2531": false}, "geometry": {"type": "Point", "coordinates": [-88.835, 40.1722]}}, {"type": "Feature", "properties": {"name": "Calvert Cliffs", "owner": "Constellation Energy", "etype": "Nuclear", "status": "Nuclear", "county": "Calvert County", "state": "Maryland", "GEOID": "24009", "site_county": "Calvert County, MD", "margin_2531": -1.03, "margin_2639": -0.47, "margin_2531_mc": -1.01, "margin_2639_mc": -0.45, "ffe": true, "ffe_unemp_2531": false, "ffe_unemp_2639": false, "coal_2639": false, "coal_2531": false}, "geometry": {"type": "Point", "coordinates": [-76.4422, 38.4319]}}, {"type": "Feature", "properties": {"name": "Nine Mile Point", "owner": "Constellation Energy", "etype": "Nuclear", "status": "Nuclear", "county": "Oswego County", "state": "New York", "GEOID": "36075", "site_county": "Oswego County, NY", "margin_2531": -0.39, "margin_2639": -0.58, "margin_2531_mc": -0.38, "margin_2639_mc": -0.57, "ffe": false, "ffe_unemp_2531": false, "ffe_unemp_2639": false, "coal_2639": false, "coal_2531": false}, "geometry": {"type": "Point", "coordinates": [-76.4069, 43.5208]}}, {"type": "Feature", "properties": {"name": "Victoria Station", "owner": "Constellation Energy", "etype": "Nuclear", "status": "Nuclear", "county": "Victoria County", "state": "Texas", "GEOID": "48469", "site_county": "Victoria County, TX", "margin_2531": 0.05, "margin_2639": -0.12, "margin_2531_mc": 0.05, "margin_2639_mc": -0.12, "ffe": true, "ffe_unemp_2531": true, "ffe_unemp_2639": false, "coal_2639": false, "coal_2531": false}, "geometry": {"type": "Point", "coordinates": [-97.0306, 28.6144]}}, {"type": "Feature", "properties": {"name": "Beaver Valley", "owner": "Constellation Energy", "etype": "Nuclear", "status": "Nuclear", "county": "Beaver County", "state": "Pennsylvania", "GEOID": "42007", "site_county": "Beaver County, PA", "margin_2531": -0.4, "margin_2639": -0.1, "margin_2531_mc": -0.29, "margin_2639_mc": -0.01, "ffe": true, "ffe_unemp_2531": false, "ffe_unemp_2639": false, "coal_2639": true, "coal_2531": true}, "geometry": {"type": "Point", "coordinates": [-80.4306, 40.6233]}}, {"type": "Feature", "properties": {"name": "Braidwood", "owner": "Constellation Energy", "etype": "Nuclear", "status": "Nuclear", "county": "Will County", "state": "Illinois", "GEOID": "17197", "site_county": "Will County, IL", "margin_2531": 1.11, "margin_2639": 0.37, "margin_2531_mc": 1.11, "margin_2639_mc": 0.37, "ffe": true, "ffe_unemp_2531": true, "ffe_unemp_2639": true, "coal_2639": false, "coal_2531": false}, "geometry": {"type": "Point", "coordinates": [-88.2292, 41.2436]}}, {"type": "Feature", "properties": {"name": "Byron", "owner": "Constellation Energy", "etype": "Nuclear", "status": "Nuclear", "county": "Ogle County", "state": "Illinois", "GEOID": "17141", "site_county": "Ogle County, IL", "margin_2531": 1.11, "margin_2639": 0.58, "margin_2531_mc": 1.43, "margin_2639_mc": 0.95, "ffe": true, "ffe_unemp_2531": true, "ffe_unemp_2639": true, "coal_2639": false, "coal_2531": false}, "geometry": {"type": "Point", "coordinates": [-89.2819, 42.0742]}}, {"type": "Feature", "properties": {"name": "Davis-Besse", "owner": "Constellation Energy", "etype": "Nuclear", "status": "Nuclear", "county": "Ottawa County", "state": "Ohio", "GEOID": "39123", "site_county": "Ottawa County, OH", "margin_2531": 1.22, "margin_2639": 1.48, "margin_2531_mc": 1.99, "margin_2639_mc": 2.16, "ffe": true, "ffe_unemp_2531": true, "ffe_unemp_2639": true, "coal_2639": false, "coal_2531": false}, "geometry": {"type": "Point", "coordinates": [-83.0864, 41.5967]}}, {"type": "Feature", "properties": {"name": "Dresden", "owner": "Constellation Energy", "etype": "Nuclear", "status": "Nuclear", "county": "Grundy County", "state": "Illinois", "GEOID": "17063", "site_county": "Grundy County, IL", "margin_2531": 1.11, "margin_2639": 0.37, "margin_2531_mc": 1.11, "margin_2639_mc": 0.37, "ffe": true, "ffe_unemp_2531": true, "ffe_unemp_2639": true, "coal_2639": false, "coal_2531": false}, "geometry": {"type": "Point", "coordinates": [-88.2681, 41.3897]}}, {"type": "Feature", "properties": {"name": "Ginna", "owner": "Constellation Energy", "etype": "Nuclear", "status": "Nuclear", "county": "Wayne County", "state": "New York", "GEOID": "36117", "site_county": "Wayne County, NY", "margin_2531": -0.38, "margin_2639": -0.55, "margin_2531_mc": -0.38, "margin_2639_mc": -0.55, "ffe": false, "ffe_unemp_2531": false, "ffe_unemp_2639": false, "coal_2639": false, "coal_2531": false}, "geometry": {"type": "Point", "coordinates": [-77.31, 43.2778]}}, {"type": "Feature", "properties": {"name": "LaSalle", "owner": "Constellation Energy", "etype": "Nuclear", "status": "Nuclear", "county": "LaSalle County", "state": "Illinois", "GEOID": "17099", "site_county": "LaSalle County, IL", "margin_2531": 1.11, "margin_2639": 0.58, "margin_2531_mc": 1.65, "margin_2639_mc": 1.08, "ffe": true, "ffe_unemp_2531": true, "ffe_unemp_2639": true, "coal_2639": false, "coal_2531": false}, "geometry": {"type": "Point", "coordinates": [-88.6692, 41.2456]}}, {"type": "Feature", "properties": {"name": "Limerick", "owner": "Constellation Energy", "etype": "Nuclear", "status": "Nuclear", "county": "Montgomery County", "state": "Pennsylvania", "GEOID": "42091", "site_county": "Montgomery County, PA", "margin_2531": -0.19, "margin_2639": 0.25, "margin_2531_mc": -0.03, "margin_2639_mc": 0.45, "ffe": true, "ffe_unemp_2531": false, "ffe_unemp_2639": true, "coal_2639": false, "coal_2531": false}, "geometry": {"type": "Point", "coordinates": [-75.5872, 40.2267]}}, {"type": "Feature", "properties": {"name": "Peach Bottom", "owner": "Constellation Energy", "etype": "Nuclear", "status": "Nuclear", "county": "York County", "state": "Pennsylvania", "GEOID": "42133", "site_county": "York County, PA", "margin_2531": -0.62, "margin_2639": -0.23, "margin_2531_mc": -0.62, "margin_2639_mc": -0.23, "ffe": true, "ffe_unemp_2531": false, "ffe_unemp_2639": false, "coal_2639": false, "coal_2531": false}, "geometry": {"type": "Point", "coordinates": [-76.2681, 39.7583]}}, {"type": "Feature", "properties": {"name": "Perry", "owner": "Constellation Energy", "etype": "Nuclear", "status": "Nuclear", "county": "Lake County", "state": "Ohio", "GEOID": "39085", "site_county": "Lake County, OH", "margin_2531": -0.2, "margin_2639": -0.25, "margin_2531_mc": 0.08, "margin_2639_mc": 0.13, "ffe": false, "ffe_unemp_2531": false, "ffe_unemp_2639": false, "coal_2639": false, "coal_2531": false}, "geometry": {"type": "Point", "coordinates": [-81.1433, 41.8008]}}, {"type": "Feature", "properties": {"name": "Quad Cities", "owner": "Constellation Energy", "etype": "Nuclear", "status": "Nuclear", "county": "Rock Island County", "state": "Illinois", "GEOID": "17161", "site_county": "Rock Island County, IL", "margin_2531": 0.6, "margin_2639": 0.45, "margin_2531_mc": 0.6, "margin_2639_mc": 0.45, "ffe": false, "ffe_unemp_2531": false, "ffe_unemp_2639": false, "coal_2639": false, "coal_2531": false}, "geometry": {"type": "Point", "coordinates": [-90.31, 41.7264]}}, {"type": "Feature", "properties": {"name": "TMI", "owner": "Constellation Energy", "etype": "Nuclear", "status": "Nuclear", "county": "Dauphin County", "state": "Pennsylvania", "GEOID": "42043", "site_county": "Dauphin County, PA", "margin_2531": -0.74, "margin_2639": -0.36, "margin_2531_mc": -0.73, "margin_2639_mc": -0.34, "ffe": true, "ffe_unemp_2531": false, "ffe_unemp_2639": false, "coal_2639": false, "coal_2531": false}, "geometry": {"type": "Point", "coordinates": [-76.7247, 40.1539]}}, {"type": "Feature", "properties": {"name": "Salem / Hope Creek", "owner": "PSEG", "etype": "Nuclear", "status": "Nuclear", "county": "Salem County", "state": "New Jersey", "GEOID": "34033", "site_county": "Salem County, NJ", "margin_2531": -0.19, "margin_2639": 0.25, "margin_2531_mc": -0.03, "margin_2639_mc": 0.45, "ffe": true, "ffe_unemp_2531": false, "ffe_unemp_2639": true, "coal_2639": false, "coal_2531": false}, "geometry": {"type": "Point", "coordinates": [-75.5356, 39.4628]}}, {"type": "Feature", "properties": {"name": "Clinch River", "owner": "TVA", "etype": "Nuclear", "status": "Nuclear", "county": "Roane County", "state": "Tennessee", "GEOID": "47145", "site_county": "Roane County, TN", "margin_2531": -0.86, "margin_2639": -1.13, "margin_2531_mc": -0.78, "margin_2639_mc": -1.02, "ffe": false, "ffe_unemp_2531": false, "ffe_unemp_2639": false, "coal_2639": false, "coal_2531": false}, "geometry": {"type": "Point", "coordinates": [-84.3825, 35.89]}}, {"type": "Feature", "properties": {"name": "Bellefonte", "owner": "TVA", "etype": "Nuclear", "status": "Nuclear", "county": "Jackson County", "state": "Alabama", "GEOID": "01071", "site_county": "Jackson County, AL", "margin_2531": -0.98, "margin_2639": -1.49, "margin_2531_mc": -0.52, "margin_2639_mc": -0.75, "ffe": true, "ffe_unemp_2531": false, "ffe_unemp_2639": false, "coal_2639": true, "coal_2531": true}, "geometry": {"type": "Point", "coordinates": [-85.9292, 34.7086]}}, {"type": "Feature", "properties": {"name": "Browns Ferry", "owner": "TVA", "etype": "Nuclear", "status": "Nuclear", "county": "Limestone County", "state": "Alabama", "GEOID": "01083", "site_county": "Limestone County, AL", "margin_2531": -1.45, "margin_2639": -1.88, "margin_2531_mc": -1.39, "margin_2639_mc": -1.84, "ffe": false, "ffe_unemp_2531": false, "ffe_unemp_2639": false, "coal_2639": false, "coal_2531": false}, "geometry": {"type": "Point", "coordinates": [-87.1186, 34.7039]}}, {"type": "Feature", "properties": {"name": "Sequoyah", "owner": "TVA", "etype": "Nuclear", "status": "Nuclear", "county": "Hamilton County", "state": "Tennessee", "GEOID": "47065", "site_county": "Hamilton County, TN", "margin_2531": -0.83, "margin_2639": -0.96, "margin_2531_mc": -0.53, "margin_2639_mc": -0.75, "ffe": false, "ffe_unemp_2531": false, "ffe_unemp_2639": false, "coal_2639": false, "coal_2531": false}, "geometry": {"type": "Point", "coordinates": [-85.0917, 35.2264]}}, {"type": "Feature", "properties": {"name": "Watts Bar", "owner": "TVA", "etype": "Nuclear", "status": "Nuclear", "county": "Rhea County", "state": "Tennessee", "GEOID": "47143", "site_county": "Rhea County, TN", "margin_2531": -0.03, "margin_2639": -0.18, "margin_2531_mc": 0.19, "margin_2639_mc": -0.1, "ffe": false, "ffe_unemp_2531": false, "ffe_unemp_2639": false, "coal_2639": true, "coal_2531": true}, "geometry": {"type": "Point", "coordinates": [-84.7894, 35.6028]}}, {"type": "Feature", "properties": {"name": "Bell Bend / Susquehanna", "owner": "Talen Energy", "etype": "Nuclear", "status": "Nuclear", "county": "Luzerne County", "state": "Pennsylvania", "GEOID": "42079", "site_county": "Luzerne County, PA", "margin_2531": 0.22, "margin_2639": 0.72, "margin_2531_mc": 0.22, "margin_2639_mc": 0.72, "ffe": true, "ffe_unemp_2531": true, "ffe_unemp_2639": true, "coal_2639": false, "coal_2531": false}, "geometry": {"type": "Point", "coordinates": [-76.1489, 41.0889]}}, {"type": "Feature", "properties": {"name": "Callaway", "owner": "Ameren Missouri", "etype": "Nuclear", "status": "Nuclear", "county": "Callaway County", "state": "Missouri", "GEOID": "29027", "site_county": "Callaway County, MO", "margin_2531": -0.91, "margin_2639": -1.03, "margin_2531_mc": -0.84, "margin_2639_mc": -0.87, "ffe": false, "ffe_unemp_2531": false, "ffe_unemp_2639": false, "coal_2639": true, "coal_2531": true}, "geometry": {"type": "Point", "coordinates": [-91.78, 38.7617]}}, {"type": "Feature", "properties": {"name": "Comanche Peak", "owner": "Vistra", "etype": "Nuclear", "status": "Nuclear", "county": "Somervell County", "state": "Texas", "GEOID": "48425", "site_county": "Somervell County, TX", "margin_2531": 0.14, "margin_2639": -0.11, "margin_2531_mc": 0.14, "margin_2639_mc": -0.11, "ffe": true, "ffe_unemp_2531": true, "ffe_unemp_2639": false, "coal_2639": false, "coal_2531": false}, "geometry": {"type": "Point", "coordinates": [-97.785, 32.2983]}}, {"type": "Feature", "properties": {"name": "Columbia", "owner": "Energy Northwest / X-Energy", "etype": "Nuclear", "status": "Nuclear", "county": "Benton County", "state": "Washington", "GEOID": "53005", "site_county": "Benton County, WA", "margin_2531": 0.95, "margin_2639": 0.61, "margin_2531_mc": 0.95, "margin_2639_mc": 0.61, "ffe": true, "ffe_unemp_2531": true, "ffe_unemp_2639": true, "coal_2639": false, "coal_2531": false}, "geometry": {"type": "Point", "coordinates": [-119.3339, 46.4711]}}, {"type": "Feature", "properties": {"name": "Cooper Nuclear Station", "owner": "Nebraska Public Power", "etype": "Nuclear", "status": "Nuclear", "county": "Nemaha County", "state": "Nebraska", "GEOID": "31127", "site_county": "Nemaha County, NE", "margin_2531": -1.44, "margin_2639": -1.54, "margin_2531_mc": -1.44, "margin_2639_mc": -1.54, "ffe": true, "ffe_unemp_2531": false, "ffe_unemp_2639": false, "coal_2639": false, "coal_2531": false}, "geometry": {"type": "Point", "coordinates": [-95.6414, 40.3619]}}, {"type": "Feature", "properties": {"name": "Fort Calhoun", "owner": "Omaha Public Power District", "etype": "Nuclear", "status": "Nuclear", "county": "Washington County", "state": "Nebraska", "GEOID": "31177", "site_county": "Washington County, NE", "margin_2531": -1.06, "margin_2639": -1.1, "margin_2531_mc": -1.06, "margin_2639_mc": -1.1, "ffe": false, "ffe_unemp_2531": false, "ffe_unemp_2639": false, "coal_2639": false, "coal_2531": false}, "geometry": {"type": "Point", "coordinates": [-96.0772, 41.5203]}}, {"type": "Feature", "properties": {"name": "Diablo Canyon", "owner": "PG&E", "etype": "Nuclear", "status": "Nuclear", "county": "San Luis Obispo County", "state": "California", "GEOID": "06079", "site_county": "San Luis Obispo County, CA", "margin_2531": 0.06, "margin_2639": 0.08, "margin_2531_mc": 0.06, "margin_2639_mc": 0.08, "ffe": true, "ffe_unemp_2531": true, "ffe_unemp_2639": true, "coal_2639": false, "coal_2531": false}, "geometry": {"type": "Point", "coordinates": [-120.8561, 35.2108]}}, {"type": "Feature", "properties": {"name": "Donald C. Cook", "owner": "American Electric Power", "etype": "Nuclear", "status": "Nuclear", "county": "Berrien County", "state": "Michigan", "GEOID": "26021", "site_county": "Berrien County, MI", "margin_2531": 1.03, "margin_2639": 1.03, "margin_2531_mc": 1.03, "margin_2639_mc": 1.03, "ffe": false, "ffe_unemp_2531": false, "ffe_unemp_2639": false, "coal_2639": false, "coal_2531": false}, "geometry": {"type": "Point", "coordinates": [-86.5653, 41.9756]}}, {"type": "Feature", "properties": {"name": "Monticello", "owner": "Xcel Energy", "etype": "Nuclear", "status": "Nuclear", "county": "Wright County", "state": "Minnesota", "GEOID": "27171", "site_county": "Wright County, MN", "margin_2531": -1.13, "margin_2639": -0.58, "margin_2531_mc": -1.11, "margin_2639_mc": -0.54, "ffe": true, "ffe_unemp_2531": false, "ffe_unemp_2639": false, "coal_2639": true, "coal_2531": true}, "geometry": {"type": "Point", "coordinates": [-93.8492, 45.3336]}}, {"type": "Feature", "properties": {"name": "Prairie Island", "owner": "Xcel Energy", "etype": "Nuclear", "status": "Nuclear", "county": "Goodhue County", "state": "Minnesota", "GEOID": "27049", "site_county": "Goodhue County, MN", "margin_2531": -1.05, "margin_2639": -0.38, "margin_2531_mc": -0.97, "margin_2639_mc": -0.38, "ffe": false, "ffe_unemp_2531": false, "ffe_unemp_2639": false, "coal_2639": false, "coal_2531": false}, "geometry": {"type": "Point", "coordinates": [-92.6331, 44.6217]}}, {"type": "Feature", "properties": {"name": "Palo Verde", "owner": "Arizona Public Service (Pinnacle West)", "etype": "Nuclear", "status": "Nuclear", "county": "Maricopa County", "state": "Arizona", "GEOID": "04013", "site_county": "Maricopa County, AZ", "margin_2531": -0.83, "margin_2639": -0.47, "margin_2531_mc": -0.82, "margin_2639_mc": -0.46, "ffe": false, "ffe_unemp_2531": false, "ffe_unemp_2639": false, "coal_2639": false, "coal_2531": false}, "geometry": {"type": "Point", "coordinates": [-112.865, 33.3892]}}, {"type": "Feature", "properties": {"name": "Wolf Creek", "owner": "Evergy", "etype": "Nuclear", "status": "Nuclear", "county": "Coffey County", "state": "Kansas", "GEOID": "20031", "site_county": "Coffey County, KS", "margin_2531": -0.54, "margin_2639": -0.6, "margin_2531_mc": -0.54, "margin_2639_mc": -0.6, "ffe": true, "ffe_unemp_2531": false, "ffe_unemp_2639": false, "coal_2639": false, "coal_2531": false}, "geometry": {"type": "Point", "coordinates": [-95.6889, 38.2389]}}, {"type": "Feature", "properties": {"name": "Palisades", "owner": "Holtec", "etype": "Nuclear", "status": "Nuclear", "county": "Van Buren County", "state": "Michigan", "GEOID": "26159", "site_county": "Van Buren County, MI", "margin_2531": 0.64, "margin_2639": 0.74, "margin_2531_mc": 0.64, "margin_2639_mc": 0.78, "ffe": false, "ffe_unemp_2531": false, "ffe_unemp_2639": false, "coal_2639": false, "coal_2531": false}, "geometry": {"type": "Point", "coordinates": [-86.3144, 42.3228]}}, {"type": "Feature", "properties": {"name": "Indian Point", "owner": "Holtec", "etype": "Nuclear", "status": "Nuclear", "county": "Westchester County", "state": "New York", "GEOID": "36119", "site_county": "Westchester County, NY", "margin_2531": 0.51, "margin_2639": 0.48, "margin_2531_mc": 0.51, "margin_2639_mc": 0.48, "ffe": false, "ffe_unemp_2531": false, "ffe_unemp_2639": false, "coal_2639": false, "coal_2531": false}, "geometry": {"type": "Point", "coordinates": [-73.9522, 41.2697]}}, {"type": "Feature", "properties": {"name": "Oyster Creek", "owner": "Holtec", "etype": "Nuclear", "status": "Nuclear", "county": "Ocean County", "state": "New Jersey", "GEOID": "34029", "site_county": "Ocean County, NJ", "margin_2531": 0.51, "margin_2639": 0.48, "margin_2531_mc": 0.51, "margin_2639_mc": 0.48, "ffe": false, "ffe_unemp_2531": false, "ffe_unemp_2639": false, "coal_2639": false, "coal_2531": false}, "geometry": {"type": "Point", "coordinates": [-74.205, 39.8147]}}, {"type": "Feature", "properties": {"name": "Pilgrim", "owner": "Holtec", "etype": "Nuclear", "status": "Nuclear", "county": "Plymouth County", "state": "Massachusetts", "GEOID": "25023", "site_county": "Plymouth County, MA", "margin_2531": -0.32, "margin_2639": -0.08, "margin_2531_mc": -0.18, "margin_2639_mc": 0.01, "ffe": false, "ffe_unemp_2531": false, "ffe_unemp_2639": false, "coal_2639": false, "coal_2531": false}, "geometry": {"type": "Point", "coordinates": [-70.5783, 41.945]}}, {"type": "Feature", "properties": {"name": "Kewaunee", "owner": "WEC / Energy Solutions", "etype": "Nuclear", "status": "Nuclear", "county": "Kewaunee County", "state": "Wisconsin", "GEOID": "55061", "site_county": "Kewaunee County, WI", "margin_2531": -1.37, "margin_2639": -1.38, "margin_2531_mc": -1.32, "margin_2639_mc": -1.34, "ffe": true, "ffe_unemp_2531": false, "ffe_unemp_2639": false, "coal_2639": false, "coal_2531": false}, "geometry": {"type": "Point", "coordinates": [-87.5361, 44.3422]}}, {"type": "Feature", "properties": {"name": "Vermont Yankee", "owner": "NorthStar (Orano Subsidiary)", "etype": "Nuclear", "status": "Nuclear", "county": "Windham County", "state": "Vermont", "GEOID": "50025", "site_county": "Windham County, VT", "margin_2531": -1.52, "margin_2639": -1.5, "margin_2531_mc": -1.52, "margin_2639_mc": -1.35, "ffe": false, "ffe_unemp_2531": false, "ffe_unemp_2639": false, "coal_2639": false, "coal_2531": false}, "geometry": {"type": "Point", "coordinates": [-72.5131, 42.7789]}}, {"type": "Feature", "properties": {"name": "San Onofre", "owner": "Southern California Edison", "etype": "Nuclear", "status": "Nuclear", "county": "San Diego County", "state": "California", "GEOID": "06073", "site_county": "San Diego County, CA", "margin_2531": 0.3, "margin_2639": 0.3, "margin_2531_mc": 0.3, "margin_2639_mc": 0.3, "ffe": true, "ffe_unemp_2531": true, "ffe_unemp_2639": true, "coal_2639": false, "coal_2531": false}, "geometry": {"type": "Point", "coordinates": [-117.555, 33.3689]}}, {"type": "Feature", "properties": {"name": "TerraPower Natrium Kemmerer", "owner": "TerraPower", "etype": "Nuclear", "status": "Nuclear", "county": "Lincoln County", "state": "Wyoming", "GEOID": "56023", "site_county": "Lincoln County, WY", "margin_2531": -0.71, "margin_2639": -0.79, "margin_2531_mc": -0.71, "margin_2639_mc": -0.79, "ffe": true, "ffe_unemp_2531": false, "ffe_unemp_2639": false, "coal_2639": true, "coal_2531": true}, "geometry": {"type": "Point", "coordinates": [-110.5606, 41.7058]}}, {"type": "Feature", "properties": {"name": "Hermes", "owner": "Kairos Power", "etype": "Nuclear", "status": "Nuclear", "county": "Roane County", "state": "Tennessee", "GEOID": "47145", "site_county": "Roane County, TN", "margin_2531": -0.86, "margin_2639": -1.13, "margin_2531_mc": -0.78, "margin_2639_mc": -1.02, "ffe": false, "ffe_unemp_2531": false, "ffe_unemp_2639": false, "coal_2639": false, "coal_2531": false}, "geometry": {"type": "Point", "coordinates": [-84.396, 35.921]}}, {"type": "Feature", "properties": {"name": "Seadrift", "owner": "Dow / X-energy", "etype": "Nuclear", "status": "Nuclear", "county": "Calhoun County", "state": "Texas", "GEOID": "48057", "site_county": "Calhoun County, TX", "margin_2531": 1.18, "margin_2639": 0.99, "margin_2531_mc": 1.18, "margin_2639_mc": 0.99, "loc_note": "Mapped at the county centroid \u2014 energy-community eligibility is determined at the county / MSA level, not the exact site point.", "ffe": true, "ffe_unemp_2531": true, "ffe_unemp_2639": true, "coal_2639": false, "coal_2531": false}, "geometry": {"type": "Point", "coordinates": [-96.5955, 28.3984]}}, {"type": "Feature", "properties": {"name": "Cape Station", "owner": "Fervo", "etype": "Geothermal", "status": "Geothermal", "county": "Beaver County", "state": "Utah", "GEOID": "49001", "site_county": "Beaver County, UT", "margin_2531": -0.52, "margin_2639": -0.44, "margin_2531_mc": -0.52, "margin_2639_mc": -0.44, "loc_note": "Approximate location (no surveyed coordinate published).", "ffe": true, "ffe_unemp_2531": false, "ffe_unemp_2639": false, "coal_2639": false, "coal_2531": false}, "geometry": {"type": "Point", "coordinates": [-112.9, 38.5]}}, {"type": "Feature", "properties": {"name": "Project Red", "owner": "Fervo", "etype": "Geothermal", "status": "Geothermal", "county": "Humboldt County", "state": "Nevada", "GEOID": "32013", "site_county": "Humboldt County, NV", "margin_2531": 1.25, "margin_2639": 0.43, "margin_2531_mc": 1.25, "margin_2639_mc": 0.43, "loc_note": "Approximate location (no surveyed coordinate published).", "ffe": true, "ffe_unemp_2531": true, "ffe_unemp_2639": true, "coal_2639": false, "coal_2531": false}, "geometry": {"type": "Point", "coordinates": [-118.05, 40.94]}}, {"type": "Feature", "properties": {"name": "Fervo Pipeline I", "owner": "Fervo", "etype": "Geothermal", "status": "Geothermal", "county": "Churchill County", "state": "Nevada", "GEOID": "32001", "site_county": "Churchill County, NV", "margin_2531": 1.25, "margin_2639": 0.43, "margin_2531_mc": 1.25, "margin_2639_mc": 0.43, "loc_note": "Mapped at the county centroid \u2014 energy-community eligibility is determined at the county / MSA level, not the exact site point.", "ffe": true, "ffe_unemp_2531": true, "ffe_unemp_2639": true, "coal_2639": false, "coal_2531": false}, "geometry": {"type": "Point", "coordinates": [-118.29, 39.5479]}}, {"type": "Feature", "properties": {"name": "Fervo Pipeline I", "owner": "Fervo", "etype": "Geothermal", "status": "Geothermal", "county": "Lander County", "state": "Nevada", "GEOID": "32015", "site_county": "Lander County, NV", "margin_2531": 1.25, "margin_2639": 0.43, "margin_2531_mc": 1.25, "margin_2639_mc": 0.43, "loc_note": "Mapped at the county centroid \u2014 energy-community eligibility is determined at the county / MSA level, not the exact site point.", "ffe": true, "ffe_unemp_2531": true, "ffe_unemp_2639": true, "coal_2639": false, "coal_2531": false}, "geometry": {"type": "Point", "coordinates": [-117.0579, 40.0366]}}, {"type": "Feature", "properties": {"name": "Fervo Pipeline I", "owner": "Fervo", "etype": "Geothermal", "status": "Geothermal", "county": "Elko County", "state": "Nevada", "GEOID": "32007", "site_county": "Elko County, NV", "margin_2531": 1.25, "margin_2639": 0.43, "margin_2531_mc": 1.25, "margin_2639_mc": 0.43, "loc_note": "Mapped at the county centroid \u2014 energy-community eligibility is determined at the county / MSA level, not the exact site point.", "ffe": true, "ffe_unemp_2531": true, "ffe_unemp_2639": true, "coal_2639": false, "coal_2531": false}, "geometry": {"type": "Point", "coordinates": [-115.5301, 41.1102]}}, {"type": "Feature", "properties": {"name": "Fervo Pipeline I", "owner": "Fervo", "etype": "Geothermal", "status": "Geothermal", "county": "Pershing County", "state": "Nevada", "GEOID": "32027", "site_county": "Pershing County, NV", "margin_2531": 1.25, "margin_2639": 0.43, "margin_2531_mc": 1.25, "margin_2639_mc": 0.43, "loc_note": "Mapped at the county centroid \u2014 energy-community eligibility is determined at the county / MSA level, not the exact site point.", "ffe": true, "ffe_unemp_2531": true, "ffe_unemp_2639": true, "coal_2639": false, "coal_2531": false}, "geometry": {"type": "Point", "coordinates": [-118.3393, 40.4403]}}, {"type": "Feature", "properties": {"name": "Fervo Pipeline II", "owner": "Fervo", "etype": "Geothermal", "status": "Geothermal", "county": "Millard County", "state": "Utah", "GEOID": "49027", "site_county": "Millard County, UT", "margin_2531": -0.52, "margin_2639": -0.44, "margin_2531_mc": -0.52, "margin_2639_mc": -0.44, "loc_note": "Mapped at the county centroid \u2014 energy-community eligibility is determined at the county / MSA level, not the exact site point.", "ffe": true, "ffe_unemp_2531": false, "ffe_unemp_2639": false, "coal_2639": true, "coal_2531": false}, "geometry": {"type": "Point", "coordinates": [-113.0319, 39.1859]}}, {"type": "Feature", "properties": {"name": "Fervo Pipeline II", "owner": "Fervo", "etype": "Geothermal", "status": "Geothermal", "county": "Iron County", "state": "Utah", "GEOID": "49021", "site_county": "Iron County, UT", "margin_2531": -0.52, "margin_2639": -0.44, "margin_2531_mc": -0.52, "margin_2639_mc": -0.44, "loc_note": "Mapped at the county centroid \u2014 energy-community eligibility is determined at the county / MSA level, not the exact site point.", "ffe": true, "ffe_unemp_2531": false, "ffe_unemp_2639": false, "coal_2639": false, "coal_2531": false}, "geometry": {"type": "Point", "coordinates": [-113.3142, 37.8146]}}, {"type": "Feature", "properties": {"name": "Fervo Pipeline II", "owner": "Fervo", "etype": "Geothermal", "status": "Geothermal", "county": "Juab County", "state": "Utah", "GEOID": "49023", "site_county": "Juab County, UT", "margin_2531": -0.76, "margin_2639": -0.64, "margin_2531_mc": -0.76, "margin_2639_mc": -0.64, "loc_note": "Mapped at the county centroid \u2014 energy-community eligibility is determined at the county / MSA level, not the exact site point.", "ffe": false, "ffe_unemp_2531": false, "ffe_unemp_2639": false, "coal_2639": true, "coal_2531": false}, "geometry": {"type": "Point", "coordinates": [-112.8819, 39.6658]}}, {"type": "Feature", "properties": {"name": "Fervo Pipeline III", "owner": "Fervo", "etype": "Geothermal", "status": "Geothermal", "county": "Twin Falls County", "state": "Idaho", "GEOID": "16083", "site_county": "Twin Falls County, ID", "margin_2531": -0.52, "margin_2639": -0.88, "margin_2531_mc": -0.52, "margin_2639_mc": -0.88, "loc_note": "Mapped at the county centroid \u2014 energy-community eligibility is determined at the county / MSA level, not the exact site point.", "ffe": false, "ffe_unemp_2531": false, "ffe_unemp_2639": false, "coal_2639": false, "coal_2531": false}, "geometry": {"type": "Point", "coordinates": [-114.553, 42.4567]}}, {"type": "Feature", "properties": {"name": "Fervo Pipeline III", "owner": "Fervo", "etype": "Geothermal", "status": "Geothermal", "county": "Cassia County", "state": "Idaho", "GEOID": "16031", "site_county": "Cassia County, ID", "margin_2531": -0.68, "margin_2639": -0.83, "margin_2531_mc": -0.68, "margin_2639_mc": -0.83, "loc_note": "Mapped at the county centroid \u2014 energy-community eligibility is determined at the county / MSA level, not the exact site point.", "ffe": false, "ffe_unemp_2531": false, "ffe_unemp_2639": false, "coal_2639": false, "coal_2531": false}, "geometry": {"type": "Point", "coordinates": [-113.6433, 42.374]}}, {"type": "Feature", "properties": {"name": "Fervo Pipeline III", "owner": "Fervo", "etype": "Geothermal", "status": "Geothermal", "county": "Owyhee County", "state": "Idaho", "GEOID": "16073", "site_county": "Owyhee County, ID", "margin_2531": -0.53, "margin_2639": -0.84, "margin_2531_mc": -0.47, "margin_2639_mc": -0.77, "loc_note": "Mapped at the county centroid \u2014 energy-community eligibility is determined at the county / MSA level, not the exact site point.", "ffe": true, "ffe_unemp_2531": false, "ffe_unemp_2639": false, "coal_2639": false, "coal_2531": false}, "geometry": {"type": "Point", "coordinates": [-116.2403, 42.8291]}}, {"type": "Feature", "properties": {"name": "Fervo Pipeline III", "owner": "Fervo", "etype": "Geothermal", "status": "Geothermal", "county": "Boise County", "state": "Idaho", "GEOID": "16015", "site_county": "Boise County, ID", "margin_2531": -0.53, "margin_2639": -0.84, "margin_2531_mc": -0.47, "margin_2639_mc": -0.77, "loc_note": "Mapped at the county centroid \u2014 energy-community eligibility is determined at the county / MSA level, not the exact site point.", "ffe": true, "ffe_unemp_2531": false, "ffe_unemp_2639": false, "coal_2639": false, "coal_2531": false}, "geometry": {"type": "Point", "coordinates": [-115.7711, 43.9714]}}, {"type": "Feature", "properties": {"name": "McGinness Hills", "owner": "Ormat", "etype": "Geothermal", "status": "Geothermal", "county": "Lander County", "state": "Nevada", "GEOID": "32015", "site_county": "Lander County, NV", "margin_2531": 1.25, "margin_2639": 0.43, "margin_2531_mc": 1.25, "margin_2639_mc": 0.43, "ffe": true, "ffe_unemp_2531": true, "ffe_unemp_2639": true, "coal_2639": false, "coal_2531": false}, "geometry": {"type": "Point", "coordinates": [-116.9117, 39.5892]}}, {"type": "Feature", "properties": {"name": "Heber Complex", "owner": "Ormat", "etype": "Geothermal", "status": "Geothermal", "county": "Imperial County", "state": "California", "GEOID": "06025", "site_county": "Imperial County, CA", "margin_2531": 14.36, "margin_2639": 14.57, "margin_2531_mc": 14.36, "margin_2639_mc": 14.57, "ffe": false, "ffe_unemp_2531": false, "ffe_unemp_2639": false, "coal_2639": false, "coal_2531": false}, "geometry": {"type": "Point", "coordinates": [-115.518, 32.7146]}}, {"type": "Feature", "properties": {"name": "Heber Complex", "owner": "Ormat", "etype": "Geothermal", "status": "Geothermal", "county": "Humboldt County", "state": "Nevada", "GEOID": "32013", "site_county": "Humboldt County, NV", "margin_2531": 1.25, "margin_2639": 0.43, "margin_2531_mc": 1.25, "margin_2639_mc": 0.43, "loc_note": "Mapped at the county centroid \u2014 energy-community eligibility is determined at the county / MSA level, not the exact site point.", "ffe": true, "ffe_unemp_2531": true, "ffe_unemp_2639": true, "coal_2639": false, "coal_2531": false}, "geometry": {"type": "Point", "coordinates": [-118.1621, 41.2657]}}, {"type": "Feature", "properties": {"name": "Dixie Valley & Coyote Canyon + Diamond Flat + Pinto + NV Energy / Google 150 + Stillwater Hybrid + Salt Wells", "owner": "Ormat", "etype": "Geothermal", "status": "Geothermal", "county": "Churchill County", "state": "Nevada", "GEOID": "32001", "site_county": "Churchill County, NV", "margin_2531": 1.25, "margin_2639": 0.43, "margin_2531_mc": 1.25, "margin_2639_mc": 0.43, "ffe": true, "ffe_unemp_2531": true, "ffe_unemp_2639": true, "coal_2639": false, "coal_2531": false}, "geometry": {"type": "Point", "coordinates": [-117.8557, 39.9663]}}, {"type": "Feature", "properties": {"name": "Beowawe", "owner": "Ormat", "etype": "Geothermal", "status": "Geothermal", "county": "Lander County", "state": "Nevada", "GEOID": "32015", "site_county": "Lander County, NV", "margin_2531": 1.25, "margin_2639": 0.43, "margin_2531_mc": 1.25, "margin_2639_mc": 0.43, "ffe": true, "ffe_unemp_2531": true, "ffe_unemp_2639": true, "coal_2639": false, "coal_2531": false}, "geometry": {"type": "Point", "coordinates": [-116.6175, 40.5547]}}, {"type": "Feature", "properties": {"name": "Tuscarora", "owner": "Ormat", "etype": "Geothermal", "status": "Geothermal", "county": "Elko County", "state": "Nevada", "GEOID": "32007", "site_county": "Elko County, NV", "margin_2531": 1.25, "margin_2639": 0.43, "margin_2531_mc": 1.25, "margin_2639_mc": 0.43, "ffe": true, "ffe_unemp_2531": true, "ffe_unemp_2639": true, "coal_2639": false, "coal_2531": false}, "geometry": {"type": "Point", "coordinates": [-116.1506, 41.4673]}}, {"type": "Feature", "properties": {"name": "Jersey Valley", "owner": "Ormat", "etype": "Geothermal", "status": "Geothermal", "county": "Pershing County", "state": "Nevada", "GEOID": "32027", "site_county": "Pershing County, NV", "margin_2531": 1.25, "margin_2639": 0.43, "margin_2531_mc": 1.25, "margin_2639_mc": 0.43, "loc_note": "Mapped at the county centroid \u2014 energy-community eligibility is determined at the county / MSA level, not the exact site point.", "ffe": true, "ffe_unemp_2531": true, "ffe_unemp_2639": true, "coal_2639": false, "coal_2531": false}, "geometry": {"type": "Point", "coordinates": [-118.3835, 40.4808]}}, {"type": "Feature", "properties": {"name": "Cove Fort", "owner": "Ormat", "etype": "Geothermal", "status": "Geothermal", "county": "Millard County", "state": "Utah", "GEOID": "49001", "site_county": "Beaver County, UT", "margin_2531": -0.52, "margin_2639": -0.44, "margin_2531_mc": -0.52, "margin_2639_mc": -0.44, "ffe": true, "ffe_unemp_2531": false, "ffe_unemp_2639": false, "coal_2639": true, "coal_2531": false}, "geometry": {"type": "Point", "coordinates": [-112.585, 38.575]}}, {"type": "Feature", "properties": {"name": "Puna", "owner": "Ormat", "etype": "Geothermal", "status": "Geothermal", "county": "Hawaii County", "state": "Hawaii", "GEOID": "15001", "site_county": "Hawaii County, HI", "margin_2531": -0.98, "margin_2639": -1.77, "margin_2531_mc": -0.82, "margin_2639_mc": -1.62, "ffe": false, "ffe_unemp_2531": false, "ffe_unemp_2639": false, "coal_2639": false, "coal_2531": false}, "geometry": {"type": "Point", "coordinates": [-154.8888, 19.4785]}}, {"type": "Feature", "properties": {"name": "The Geysers", "owner": "Calpine", "etype": "Geothermal", "status": "Geothermal", "county": "Sonoma County", "state": "California", "GEOID": "06033", "site_county": "Lake County, CA", "margin_2531": 1.69, "margin_2639": 1.63, "margin_2531_mc": 3.01, "margin_2639_mc": 2.98, "ffe": false, "ffe_unemp_2531": false, "ffe_unemp_2639": false, "coal_2639": false, "coal_2531": false}, "geometry": {"type": "Point", "coordinates": [-122.7558, 38.7906]}}, {"type": "Feature", "properties": {"name": "The Geysers", "owner": "Calpine", "etype": "Geothermal", "status": "Geothermal", "county": "Sonoma County", "state": "California", "GEOID": "06097", "site_county": "Sonoma County, CA", "margin_2531": 0.1, "margin_2639": 0.14, "margin_2531_mc": 0.43, "margin_2639_mc": 0.39, "ffe": false, "ffe_unemp_2531": false, "ffe_unemp_2639": false, "coal_2639": false, "coal_2531": false}, "geometry": {"type": "Point", "coordinates": [-122.7558, 38.7906]}}, {"type": "Feature", "properties": {"name": "GeoZone", "owner": "Calpine - Eavor", "etype": "Geothermal", "status": "Geothermal", "county": "Sonoma County", "state": "California", "GEOID": "06097", "site_county": "Sonoma County, CA", "margin_2531": 0.1, "margin_2639": 0.14, "margin_2531_mc": 0.43, "margin_2639_mc": 0.39, "loc_note": "Mapped at the county centroid \u2014 energy-community eligibility is determined at the county / MSA level, not the exact site point.", "ffe": false, "ffe_unemp_2531": false, "ffe_unemp_2639": false, "coal_2639": false, "coal_2531": false}, "geometry": {"type": "Point", "coordinates": [-122.8482, 38.4758]}}, {"type": "Feature", "properties": {"name": "Salton Sea", "owner": "BHE Renewables", "etype": "Geothermal", "status": "Geothermal", "county": "Imperial County", "state": "California", "GEOID": "06025", "site_county": "Imperial County, CA", "margin_2531": 14.36, "margin_2639": 14.57, "margin_2531_mc": 14.36, "margin_2639_mc": 14.57, "ffe": false, "ffe_unemp_2531": false, "ffe_unemp_2639": false, "coal_2639": false, "coal_2531": false}, "geometry": {"type": "Point", "coordinates": [-115.62, 33.2]}}, {"type": "Feature", "properties": {"name": "Salton Sea", "owner": "Controlled Thermal Resources", "etype": "Geothermal", "status": "Geothermal", "county": "Imperial County", "state": "California", "GEOID": "06025", "site_county": "Imperial County, CA", "margin_2531": 14.36, "margin_2639": 14.57, "margin_2531_mc": 14.36, "margin_2639_mc": 14.57, "ffe": false, "ffe_unemp_2531": false, "ffe_unemp_2639": false, "coal_2639": false, "coal_2531": false}, "geometry": {"type": "Point", "coordinates": [-115.62, 33.2]}}, {"type": "Feature", "properties": {"name": "EarthStore", "owner": "Sage", "etype": "Geothermal", "status": "Geothermal", "county": "Atascosa County", "state": "Texas", "GEOID": "48013", "site_county": "Atascosa County, TX", "margin_2531": -0.24, "margin_2639": -0.34, "margin_2531_mc": -0.23, "margin_2639_mc": -0.32, "loc_note": "Mapped at the county centroid \u2014 energy-community eligibility is determined at the county / MSA level, not the exact site point.", "ffe": true, "ffe_unemp_2531": false, "ffe_unemp_2639": false, "coal_2639": false, "coal_2531": false}, "geometry": {"type": "Point", "coordinates": [-98.5172, 28.9256]}}, {"type": "Feature", "properties": {"name": "Starr County Power Demo", "owner": "Sage", "etype": "Geothermal", "status": "Geothermal", "county": "Starr County", "state": "Texas", "GEOID": "48427", "site_county": "Starr County, TX", "margin_2531": 1.18, "margin_2639": 0.99, "margin_2531_mc": 5.51, "margin_2639_mc": 5.23, "loc_note": "Mapped at the county centroid \u2014 energy-community eligibility is determined at the county / MSA level, not the exact site point.", "ffe": true, "ffe_unemp_2531": true, "ffe_unemp_2639": true, "coal_2639": false, "coal_2531": false}, "geometry": {"type": "Point", "coordinates": [-98.7865, 26.5128]}}, {"type": "Feature", "properties": {"name": "Fort Bliss Feasibility", "owner": "Sage", "etype": "Geothermal", "status": "Geothermal", "county": "El Paso County", "state": "Texas", "GEOID": "48141", "site_county": "El Paso County, TX", "margin_2531": 0.15, "margin_2639": 0.07, "margin_2531_mc": 0.3, "margin_2639_mc": 0.18, "loc_note": "Mapped at the county centroid \u2014 energy-community eligibility is determined at the county / MSA level, not the exact site point.", "ffe": true, "ffe_unemp_2531": true, "ffe_unemp_2639": true, "coal_2639": false, "coal_2531": false}, "geometry": {"type": "Point", "coordinates": [-106.1684, 31.6804]}}, {"type": "Feature", "properties": {"name": "NAS Corpus Christi", "owner": "Sage", "etype": "Geothermal", "status": "Geothermal", "county": "Nueces County", "state": "Texas", "GEOID": "48355", "site_county": "Nueces County, TX", "margin_2531": 0.34, "margin_2639": 0.11, "margin_2531_mc": 0.4, "margin_2639_mc": 0.15, "loc_note": "Mapped at the county centroid \u2014 energy-community eligibility is determined at the county / MSA level, not the exact site point.", "ffe": true, "ffe_unemp_2531": true, "ffe_unemp_2639": true, "coal_2639": false, "coal_2531": false}, "geometry": {"type": "Point", "coordinates": [-97.6627, 27.7797]}}, {"type": "Feature", "properties": {"name": "Newberry", "owner": "Sage", "etype": "Geothermal", "status": "Geothermal", "county": "Deschutes County", "state": "Oregon", "GEOID": "41017", "site_county": "Deschutes County, OR", "margin_2531": 0.23, "margin_2639": 0.71, "margin_2531_mc": 0.23, "margin_2639_mc": 0.71, "ffe": false, "ffe_unemp_2531": false, "ffe_unemp_2639": false, "coal_2639": false, "coal_2531": false}, "geometry": {"type": "Point", "coordinates": [-121.229, 43.722]}}, {"type": "Feature", "properties": {"name": "Greenfire Energy", "owner": "Sage", "etype": "Geothermal", "status": "Geothermal", "county": "Inyo County", "state": "California", "GEOID": "06027", "site_county": "Inyo County, CA", "margin_2531": 1.25, "margin_2639": 1.31, "margin_2531_mc": 1.25, "margin_2639_mc": 1.31, "loc_note": "Mapped at the county centroid \u2014 energy-community eligibility is determined at the county / MSA level, not the exact site point.", "ffe": true, "ffe_unemp_2531": true, "ffe_unemp_2639": true, "coal_2639": true, "coal_2531": true}, "geometry": {"type": "Point", "coordinates": [-117.498, 36.6158]}}, {"type": "Feature", "properties": {"name": "Goldendale Energy Storage", "owner": "Copenhagen Infrastructure Partners", "etype": "Storage", "status": "Storage", "county": "Klickitat County", "state": "Washington", "GEOID": "53039", "site_county": "Klickitat County, WA", "margin_2531": 1.15, "margin_2639": 0.97, "margin_2531_mc": 1.15, "margin_2639_mc": 0.97, "loc_note": "Mapped at the county centroid \u2014 energy-community eligibility is determined at the county / MSA level, not the exact site point.", "ffe": false, "ffe_unemp_2531": false, "ffe_unemp_2639": false, "coal_2639": false, "coal_2531": false}, "geometry": {"type": "Point", "coordinates": [-120.7737, 45.8263]}}, {"type": "Feature", "properties": {"name": "Swan Lake Energy Storage", "owner": "Copenhagen Infrastructure Partners", "etype": "Storage", "status": "Storage", "county": "Klamath County", "state": "Oregon", "GEOID": "41035", "site_county": "Klamath County, OR", "margin_2531": 0.88, "margin_2639": 1.66, "margin_2531_mc": 1.87, "margin_2639_mc": 2.95, "loc_note": "Mapped at the county centroid \u2014 energy-community eligibility is determined at the county / MSA level, not the exact site point.", "ffe": false, "ffe_unemp_2531": false, "ffe_unemp_2639": false, "coal_2639": false, "coal_2531": false}, "geometry": {"type": "Point", "coordinates": [-121.8168, 42.8601]}}, {"type": "Feature", "properties": {"name": "Eagle Mountain Pumped Storage", "owner": "Eagle Crest Energy", "etype": "Storage", "status": "Storage", "county": "Riverside County", "state": "California", "GEOID": "06065", "site_county": "Riverside County, CA", "margin_2531": 1.2, "margin_2639": 1.19, "margin_2531_mc": 1.27, "margin_2639_mc": 1.19, "ffe": true, "ffe_unemp_2531": true, "ffe_unemp_2639": true, "coal_2639": false, "coal_2531": false}, "geometry": {"type": "Point", "coordinates": [-115.49, 33.87]}}, {"type": "Feature", "properties": {"name": "Gordon Butte Pumped Storage", "owner": "GB Energy Park LLC", "etype": "Storage", "status": "Storage", "county": "Meagher County", "state": "Montana", "GEOID": "30059", "site_county": "Meagher County, MT", "margin_2531": -0.78, "margin_2639": -0.65, "margin_2531_mc": -0.78, "margin_2639_mc": -0.65, "ffe": true, "ffe_unemp_2531": false, "ffe_unemp_2639": false, "coal_2639": false, "coal_2531": false}, "geometry": {"type": "Point", "coordinates": [-110.3333, 46.4167]}}, {"type": "Feature", "properties": {"name": "Lewis Ridge Pumped Storage", "owner": "Rye Development", "etype": "Storage", "status": "Storage", "county": "Bell County", "state": "Kentucky", "GEOID": "21013", "site_county": "Bell County, KY", "margin_2531": 3.13, "margin_2639": 2.13, "margin_2531_mc": 3.13, "margin_2639_mc": 2.13, "loc_note": "Mapped at the county centroid \u2014 energy-community eligibility is determined at the county / MSA level, not the exact site point.", "ffe": true, "ffe_unemp_2531": true, "ffe_unemp_2639": true, "coal_2639": true, "coal_2531": true}, "geometry": {"type": "Point", "coordinates": [-83.653, 36.7579]}}, {"type": "Feature", "properties": {"name": "Western Navajo 1 Pumped Storage", "owner": "Rye Development", "etype": "Storage", "status": "Storage", "county": "Coconino County", "state": "Arizona", "GEOID": "04005", "site_county": "Coconino County, AZ", "margin_2531": -0.17, "margin_2639": 0.4, "margin_2531_mc": -0.17, "margin_2639_mc": 0.4, "loc_note": "Mapped at the county centroid \u2014 energy-community eligibility is determined at the county / MSA level, not the exact site point.", "ffe": true, "ffe_unemp_2531": false, "ffe_unemp_2639": true, "coal_2639": false, "coal_2531": false}, "geometry": {"type": "Point", "coordinates": [-112.0424, 35.6629]}}, {"type": "Feature", "properties": {"name": "White Pine Pumped Storage", "owner": "rPlus Hydro", "etype": "Storage", "status": "Storage", "county": "White Pine County", "state": "Nevada", "GEOID": "32033", "site_county": "White Pine County, NV", "margin_2531": 1.25, "margin_2639": 0.43, "margin_2531_mc": 1.25, "margin_2639_mc": 0.43, "loc_note": "Mapped at the county centroid \u2014 energy-community eligibility is determined at the county / MSA level, not the exact site point.", "ffe": true, "ffe_unemp_2531": true, "ffe_unemp_2639": true, "coal_2639": false, "coal_2531": false}, "geometry": {"type": "Point", "coordinates": [-114.9776, 39.3982]}}, {"type": "Feature", "properties": {"name": "Seminoe Pumped Storage", "owner": "rPlus Hydro", "etype": "Storage", "status": "Storage", "county": "Carbon County", "state": "Wyoming", "GEOID": "56007", "site_county": "Carbon County, WY", "margin_2531": -0.97, "margin_2639": -1.1, "margin_2531_mc": -0.97, "margin_2639_mc": -1.1, "loc_note": "Mapped at the county centroid \u2014 energy-community eligibility is determined at the county / MSA level, not the exact site point.", "ffe": true, "ffe_unemp_2531": false, "ffe_unemp_2639": false, "coal_2639": true, "coal_2531": true}, "geometry": {"type": "Point", "coordinates": [-106.7912, 41.7]}}, {"type": "Feature", "properties": {"name": "SRP Salt River Pumped Storage", "owner": "Salt River Project", "etype": "Storage", "status": "Storage", "county": "Maricopa County", "state": "Arizona", "GEOID": "04013", "site_county": "Maricopa County, AZ", "margin_2531": -0.83, "margin_2639": -0.47, "margin_2531_mc": -0.82, "margin_2639_mc": -0.46, "loc_note": "Mapped at the county centroid \u2014 energy-community eligibility is determined at the county / MSA level, not the exact site point.", "ffe": false, "ffe_unemp_2531": false, "ffe_unemp_2639": false, "coal_2639": false, "coal_2531": false}, "geometry": {"type": "Point", "coordinates": [-112.7683, 33.2777]}}, {"type": "Feature", "properties": {"name": "Navajo Energy Storage Station", "owner": "Daybreak Power", "etype": "Storage", "status": "Storage", "county": "Coconino County", "state": "Arizona", "GEOID": "04005", "site_county": "Coconino County, AZ", "margin_2531": -0.17, "margin_2639": 0.4, "margin_2531_mc": -0.17, "margin_2639_mc": 0.4, "loc_note": "Mapped at the county centroid \u2014 energy-community eligibility is determined at the county / MSA level, not the exact site point.", "ffe": true, "ffe_unemp_2531": false, "ffe_unemp_2639": true, "coal_2639": false, "coal_2531": false}, "geometry": {"type": "Point", "coordinates": [-112.0866, 35.7034]}}, {"type": "Feature", "properties": {"name": "Bath County Pumped Storage", "owner": "Dominion Energy", "etype": "Storage", "status": "Storage", "county": "Bath County", "state": "Virginia", "GEOID": "51017", "site_county": "Bath County, VA", "margin_2531": -0.98, "margin_2639": -0.74, "margin_2531_mc": -0.98, "margin_2639_mc": -0.74, "ffe": true, "ffe_unemp_2531": false, "ffe_unemp_2639": false, "coal_2639": false, "coal_2531": false}, "geometry": {"type": "Point", "coordinates": [-79.8194, 38.2306]}}, {"type": "Feature", "properties": {"name": "Ludington Pumped Storage", "owner": "Consumers Energy / DTE Energy", "etype": "Storage", "status": "Storage", "county": "Mason County", "state": "Michigan", "GEOID": "26105", "site_county": "Mason County, MI", "margin_2531": 1.78, "margin_2639": 2.05, "margin_2531_mc": 1.79, "margin_2639_mc": 2.13, "ffe": true, "ffe_unemp_2531": true, "ffe_unemp_2639": true, "coal_2639": false, "coal_2531": false}, "geometry": {"type": "Point", "coordinates": [-86.4453, 43.8936]}}, {"type": "Feature", "properties": {"name": "Raccoon Mountain Pumped Storage", "owner": "TVA", "etype": "Storage", "status": "Storage", "county": "Marion County", "state": "Tennessee", "GEOID": "47115", "site_county": "Marion County, TN", "margin_2531": -0.83, "margin_2639": -0.96, "margin_2531_mc": -0.53, "margin_2639_mc": -0.75, "ffe": false, "ffe_unemp_2531": false, "ffe_unemp_2639": false, "coal_2639": false, "coal_2531": false}, "geometry": {"type": "Point", "coordinates": [-85.3967, 35.0483]}}, {"type": "Feature", "properties": {"name": "Castaic / Pyramid Lake / Wm. E. Warne", "owner": "California State Water (Los Angeles)", "etype": "Storage", "status": "Storage", "county": "Los Angeles County", "state": "California", "GEOID": "06037", "site_county": "Los Angeles County, CA", "margin_2531": 1.34, "margin_2639": 1.0, "margin_2531_mc": 1.34, "margin_2639_mc": 1.02, "ffe": true, "ffe_unemp_2531": true, "ffe_unemp_2639": true, "coal_2639": false, "coal_2531": false}, "geometry": {"type": "Point", "coordinates": [-118.6566, 34.5873]}}, {"type": "Feature", "properties": {"name": "Helms Pumped Storage", "owner": "PG&E", "etype": "Storage", "status": "Storage", "county": "Fresno County", "state": "California", "GEOID": "06019", "site_county": "Fresno County, CA", "margin_2531": 3.92, "margin_2639": 4.19, "margin_2531_mc": 3.97, "margin_2639_mc": 4.21, "ffe": false, "ffe_unemp_2531": false, "ffe_unemp_2639": false, "coal_2639": false, "coal_2531": false}, "geometry": {"type": "Point", "coordinates": [-118.9647, 37.0369]}}, {"type": "Feature", "properties": {"name": "Broadwing Energy Center", "owner": "Low Carbon Infrastructure (LCI; I Squared Capital)", "etype": "CCS", "status": "CCS", "county": "Macon County", "state": "Illinois", "GEOID": "17115", "site_county": "Macon County, IL", "margin_2531": 1.81, "margin_2639": 1.54, "margin_2531_mc": 1.81, "margin_2639_mc": 1.54, "ffe": true, "ffe_unemp_2531": true, "ffe_unemp_2639": true, "coal_2639": false, "coal_2531": false}, "geometry": {"type": "Point", "coordinates": [-88.881, 39.832]}}, {"type": "Feature", "properties": {"name": "Net Power - Project Permian", "owner": "Net Power", "etype": "CCS", "status": "CCS", "county": "Midland County", "state": "Texas", "GEOID": "48329", "site_county": "Midland County, TX", "margin_2531": -1.11, "margin_2639": -1.18, "margin_2531_mc": -0.85, "margin_2639_mc": -0.89, "loc_note": "Mapped at the county centroid \u2014 energy-community eligibility is determined at the county / MSA level, not the exact site point.", "ffe": true, "ffe_unemp_2531": false, "ffe_unemp_2639": false, "coal_2639": false, "coal_2531": false}, "geometry": {"type": "Point", "coordinates": [-102.0316, 31.7627]}}, {"type": "Feature", "properties": {"name": "Calpine Baytown CCS Project", "owner": "Calpine", "etype": "CCS", "status": "CCS", "county": "Chambers County", "state": "Texas", "GEOID": "48201", "site_county": "Harris County, TX", "margin_2531": 0.33, "margin_2639": 0.19, "margin_2531_mc": 0.33, "margin_2639_mc": 0.2, "ffe": true, "ffe_unemp_2531": true, "ffe_unemp_2639": true, "coal_2639": false, "coal_2531": false}, "geometry": {"type": "Point", "coordinates": [-94.9019, 29.7731]}}]}