{"type": "FeatureCollection", "features": [{"type": "Feature", "properties": {"name": "Zion Nuclear Power Station", "category": "former", "dissolved": "1998-02-13"}, "geometry": {"type": "Point", "coordinates": [-87.8028, 42.4461]}}, {"type": "Feature", "properties": {"name": "Rancho Seco Nuclear Generating Station", "category": "former", "dissolved": "1989-06-23"}, "geometry": {"type": "Point", "coordinates": [-121.1217, 38.3453]}}, {"type": "Feature", "properties": {"name": "Callaway Nuclear Generating Station", "category": "operating"}, "geometry": {"type": "Point", "coordinates": [-91.78, 38.7617]}}, {"type": "Feature", "properties": {"name": "McGuire Nuclear Station", "category": "operating"}, "geometry": {"type": "Point", "coordinates": [-80.9483, 35.4325]}}, {"type": "Feature", "properties": {"name": "Comanche Peak Nuclear Power Plant", "category": "operating"}, "geometry": {"type": "Point", "coordinates": [-97.785, 32.2983]}}, {"type": "Feature", "properties": {"name": "Braidwood Nuclear Generating Station", "category": "operating"}, "geometry": {"type": "Point", "coordinates": [-88.2292, 41.2436]}}, {"type": "Feature", "properties": {"name": "Duane Arnold Energy Center", "category": "former"}, "geometry": {"type": "Point", "coordinates": [-91.7772, 42.1006]}}, {"type": "Feature", "properties": {"name": "Crystal River Nuclear Plant", "category": "former"}, "geometry": {"type": "Point", "coordinates": [-82.6983, 28.9575]}}, {"type": "Feature", "properties": {"name": "Enrico Fermi Nuclear Generating Station", "category": "operating"}, "geometry": {"type": "Point", "coordinates": [-83.2575, 41.9628]}}, {"type": "Feature", "properties": {"name": "Kewaunee Power Station", "category": "former", "dissolved": "2013-05-07"}, "geometry": {"type": "Point", "coordinates": [-87.5361, 44.3422]}}, {"type": "Feature", "properties": {"name": "La Crosse Boiling Water Reactor", "category": "former", "dissolved": "1987-04-30"}, "geometry": {"type": "Point", "coordinates": [-91.2315, 43.5601]}}, {"type": "Feature", "properties": {"name": "Prairie Island Nuclear Power Plant", "category": "operating"}, "geometry": {"type": "Point", "coordinates": [-92.6331, 44.6217]}}, {"type": "Feature", "properties": {"name": "R. E. Ginna Nuclear Power Plant", "category": "operating"}, "geometry": {"type": "Point", "coordinates": [-77.31, 43.2778]}}, {"type": "Feature", "properties": {"name": "St. Lucie Nuclear Power Plant", "category": "operating"}, "geometry": {"type": "Point", "coordinates": [-80.2464, 27.3486]}}, {"type": "Feature", "properties": {"name": "South Texas Nuclear Generating Station", "category": "operating"}, "geometry": {"type": "Point", "coordinates": [-96.0489, 28.7956]}}, {"type": "Feature", "properties": {"name": "H. B. Robinson Nuclear Generating Station", "category": "operating"}, "geometry": {"type": "Point", "coordinates": [-80.1583, 34.4028]}}, {"type": "Feature", "properties": {"name": "Clinton Power Station", "category": "operating"}, "geometry": {"type": "Point", "coordinates": [-88.835, 40.1722]}}, {"type": "Feature", "properties": {"name": "Salem Nuclear Power Plant", "category": "operating"}, "geometry": {"type": "Point", "coordinates": [-75.5356, 39.4628]}}, {"type": "Feature", "properties": {"name": "Big Rock Point Nuclear Power Plant", "category": "former"}, "geometry": {"type": "Point", "coordinates": [-85.1756, 45.3628]}}, {"type": "Feature", "properties": {"name": "Millstone Nuclear Power Plant", "category": "operating"}, "geometry": {"type": "Point", "coordinates": [-72.1677, 41.3105]}}, {"type": "Feature", "properties": {"name": "Humboldt Bay Nuclear Power Plant", "category": "former", "dissolved": "2020-09-30"}, "geometry": {"type": "Point", "coordinates": [-124.209, 40.7413]}}, {"type": "Feature", "properties": {"name": "San Onofre Nuclear Generating Station", "category": "former"}, "geometry": {"type": "Point", "coordinates": [-117.555, 33.3689]}}, {"type": "Feature", "properties": {"name": "LaSalle County Nuclear Generating Station", "category": "operating"}, "geometry": {"type": "Point", "coordinates": [-88.6692, 41.2456]}}, {"type": "Feature", "properties": {"name": "Susquehanna Steam Electric Station", "category": "operating"}, "geometry": {"type": "Point", "coordinates": [-76.1489, 41.0889]}}, {"type": "Feature", "properties": {"name": "Elk River Station", "category": "former"}, "geometry": {"type": "Point", "coordinates": [-93.5567, 45.2952]}}, {"type": "Feature", "properties": {"name": "Pathfinder Nuclear Generating Station", "category": "former", "dissolved": "October 1967"}, "geometry": {"type": "Point", "coordinates": [-96.6375, 43.6036]}}, {"type": "Feature", "properties": {"name": "Wolf Creek Generating Station", "category": "operating"}, "geometry": {"type": "Point", "coordinates": [-95.6889, 38.2389]}}, {"type": "Feature", "properties": {"name": "Oconee Nuclear Station", "category": "operating"}, "geometry": {"type": "Point", "coordinates": [-82.8981, 34.7939]}}, {"type": "Feature", "properties": {"name": "Byron Nuclear Generating Station", "category": "operating"}, "geometry": {"type": "Point", "coordinates": [-89.2819, 42.0742]}}, {"type": "Feature", "properties": {"name": "James A. FitzPatrick Nuclear Power Plant", "category": "operating"}, "geometry": {"type": "Point", "coordinates": [-76.3983, 43.5233]}}, {"type": "Feature", "properties": {"name": "Davis-Besse Nuclear Power Station", "category": "operating"}, "geometry": {"type": "Point", "coordinates": [-83.0864, 41.5967]}}, {"type": "Feature", "properties": {"name": "Watts Bar Nuclear Plant", "category": "operating"}, "geometry": {"type": "Point", "coordinates": [-84.7894, 35.6028]}}, {"type": "Feature", "properties": {"name": "Indian Point Energy Center", "category": "former", "dissolved": "--10-31"}, "geometry": {"type": "Point", "coordinates": [-73.9522, 41.2697]}}, {"type": "Feature", "properties": {"name": "Donald C. Cook Nuclear Plant", "category": "operating"}, "geometry": {"type": "Point", "coordinates": [-86.5653, 41.9756]}}, {"type": "Feature", "properties": {"name": "Perry Nuclear Generating Station", "category": "operating"}, "geometry": {"type": "Point", "coordinates": [-81.1433, 41.8008]}}, {"type": "Feature", "properties": {"name": "Palo Verde Nuclear Generating Station", "category": "operating"}, "geometry": {"type": "Point", "coordinates": [-112.865, 33.3892]}}, {"type": "Feature", "properties": {"name": "Turkey Point Nuclear Generating Station", "category": "operating"}, "geometry": {"type": "Point", "coordinates": [-80.3306, 25.4342]}}, {"type": "Feature", "properties": {"name": "Vermont Yankee Nuclear Power Plant", "category": "former"}, "geometry": {"type": "Point", "coordinates": [-72.5131, 42.7789]}}, {"type": "Feature", "properties": {"name": "Shearon Harris Nuclear Power Plant", "category": "operating"}, "geometry": {"type": "Point", "coordinates": [-78.955, 35.6333]}}, {"type": "Feature", "properties": {"name": "Palisades Nuclear Generating Station", "category": "former", "dissolved": "2022-05-20"}, "geometry": {"type": "Point", "coordinates": [-86.3144, 42.3228]}}, {"type": "Feature", "properties": {"name": "Quad Cities Nuclear Generating Station", "category": "operating"}, "geometry": {"type": "Point", "coordinates": [-90.31, 41.7264]}}, {"type": "Feature", "properties": {"name": "Nine Mile Point Nuclear Generating Station", "category": "operating"}, "geometry": {"type": "Point", "coordinates": [-76.4069, 43.5208]}}, {"type": "Feature", "properties": {"name": "Vogtle Electric Generating Plant", "category": "operating"}, "geometry": {"type": "Point", "coordinates": [-81.7606, 33.1433]}}, {"type": "Feature", "properties": {"name": "Edwin I. Hatch Nuclear Power Plant", "category": "operating"}, "geometry": {"type": "Point", "coordinates": [-82.3439, 31.9342]}}, {"type": "Feature", "properties": {"name": "Connecticut Yankee Nuclear Power Plant", "category": "former", "dissolved": "1996-12-05"}, "geometry": {"type": "Point", "coordinates": [-72.4983, 41.4822]}}, {"type": "Feature", "properties": {"name": "Maine Yankee Nuclear Power Plant", "category": "former", "dissolved": "1997-08-01"}, "geometry": {"type": "Point", "coordinates": [-69.6958, 43.9506]}}, {"type": "Feature", "properties": {"name": "Oyster Creek Nuclear Generating Station", "category": "former", "dissolved": "2018-09-17"}, "geometry": {"type": "Point", "coordinates": [-74.205, 39.8147]}}, {"type": "Feature", "properties": {"name": "Grand Gulf Nuclear Station", "category": "operating"}, "geometry": {"type": "Point", "coordinates": [-91.0478, 32.0072]}}, {"type": "Feature", "properties": {"name": "Brunswick Nuclear Generating Station", "category": "operating"}, "geometry": {"type": "Point", "coordinates": [-78.0103, 33.9583]}}, {"type": "Feature", "properties": {"name": "Waterford Nuclear Generating Station", "category": "operating"}, "geometry": {"type": "Point", "coordinates": [-90.4711, 29.9953]}}, {"type": "Feature", "properties": {"name": "North Anna Nuclear Generating Station", "category": "operating"}, "geometry": {"type": "Point", "coordinates": [-77.7894, 38.0606]}}, {"type": "Feature", "properties": {"name": "Fort Saint Vrain Nuclear Power Plant", "category": "former", "dissolved": "1989"}, "geometry": {"type": "Point", "coordinates": [-104.8742, 40.2444]}}, {"type": "Feature", "properties": {"name": "Yankee Rowe Nuclear Power Station", "category": "former"}, "geometry": {"type": "Point", "coordinates": [-72.9291, 42.7278]}}, {"type": "Feature", "properties": {"name": "Fermi 1", "category": "former", "dissolved": "1975-12-31"}, "geometry": {"type": "Point", "coordinates": [-83.2578, 41.9606]}}, {"type": "Feature", "properties": {"name": "Peach Bottom Nuclear Generating Station", "category": "operating"}, "geometry": {"type": "Point", "coordinates": [-76.2681, 39.7583]}}, {"type": "Feature", "properties": {"name": "Seabrook Station Nuclear Power Plant", "category": "operating"}, "geometry": {"type": "Point", "coordinates": [-70.8508, 42.8989]}}, {"type": "Feature", "properties": {"name": "Columbia Generating Station", "category": "operating"}, "geometry": {"type": "Point", "coordinates": [-119.3339, 46.4711]}}, {"type": "Feature", "properties": {"name": "Beaver Valley Nuclear Power Station", "category": "operating"}, "geometry": {"type": "Point", "coordinates": [-80.4306, 40.6233]}}, {"type": "Feature", "properties": {"name": "Cooper Nuclear Station", "category": "operating"}, "geometry": {"type": "Point", "coordinates": [-95.6414, 40.3619]}}, {"type": "Feature", "properties": {"name": "Monticello Nuclear Generating Plant", "category": "operating"}, "geometry": {"type": "Point", "coordinates": [-93.8492, 45.3336]}}, {"type": "Feature", "properties": {"name": "Piqua Nuclear Generating Station", "category": "former", "dissolved": "1966"}, "geometry": {"type": "Point", "coordinates": [-84.2348, 40.1323]}}, {"type": "Feature", "properties": {"name": "Shippingport Atomic Power Station", "category": "former", "dissolved": "December 1989"}, "geometry": {"type": "Point", "coordinates": [-80.4353, 40.6211]}}, {"type": "Feature", "properties": {"name": "Trojan Nuclear Power Plant", "category": "former", "dissolved": "1992-11-09"}, "geometry": {"type": "Point", "coordinates": [-122.885, 46.0383]}}, {"type": "Feature", "properties": {"name": "Diablo Canyon Power Plant", "category": "operating"}, "geometry": {"type": "Point", "coordinates": [-120.8561, 35.2108]}}, {"type": "Feature", "properties": {"name": "Hope Creek Nuclear Generating Station", "category": "operating"}, "geometry": {"type": "Point", "coordinates": [-75.5381, 39.4678]}}, {"type": "Feature", "properties": {"name": "Limerick Generating Station", "category": "operating"}, "geometry": {"type": "Point", "coordinates": [-75.5872, 40.2267]}}, {"type": "Feature", "properties": {"name": "Fort Calhoun Nuclear Generating Station", "category": "former"}, "geometry": {"type": "Point", "coordinates": [-96.0772, 41.5203]}}, {"type": "Feature", "properties": {"name": "Sequoyah Nuclear Plant", "category": "operating"}, "geometry": {"type": "Point", "coordinates": [-85.0917, 35.2264]}}, {"type": "Feature", "properties": {"name": "Pilgrim Nuclear Power Station", "category": "former", "dissolved": "2019-05-31"}, "geometry": {"type": "Point", "coordinates": [-70.5783, 41.945]}}, {"type": "Feature", "properties": {"name": "Browns Ferry Nuclear Plant", "category": "operating"}, "geometry": {"type": "Point", "coordinates": [-87.1186, 34.7039]}}, {"type": "Feature", "properties": {"name": "Arkansas Nuclear One", "category": "operating"}, "geometry": {"type": "Point", "coordinates": [-93.231, 35.311]}}, {"type": "Feature", "properties": {"name": "Three Mile Island Nuclear Generating Station", "category": "former"}, "geometry": {"type": "Point", "coordinates": [-76.7247, 40.1539]}}, {"type": "Feature", "properties": {"name": "River Bend Nuclear Generating Station", "category": "operating"}, "geometry": {"type": "Point", "coordinates": [-91.3333, 30.7567]}}, {"type": "Feature", "properties": {"name": "Point Beach Nuclear Plant", "category": "operating"}, "geometry": {"type": "Point", "coordinates": [-87.5367, 44.2811]}}, {"type": "Feature", "properties": {"name": "Shoreham Nuclear Power Plant", "category": "former", "dissolved": "1989-05-01"}, "geometry": {"type": "Point", "coordinates": [-72.865, 40.9611]}}, {"type": "Feature", "properties": {"name": "Dresden Generating Station", "category": "operating"}, "geometry": {"type": "Point", "coordinates": [-88.2681, 41.3897]}}, {"type": "Feature", "properties": {"name": "Catawba Nuclear Station", "category": "operating"}, "geometry": {"type": "Point", "coordinates": [-81.07, 35.0517]}}, {"type": "Feature", "properties": {"name": "Joseph M. Farley Nuclear Plant", "category": "operating"}, "geometry": {"type": "Point", "coordinates": [-85.1117, 31.2231]}}, {"type": "Feature", "properties": {"name": "Calvert Cliffs Nuclear Power Plant", "category": "operating"}, "geometry": {"type": "Point", "coordinates": [-76.4422, 38.4319]}}, {"type": "Feature", "properties": {"name": "Surry Nuclear Power Plant", "category": "operating"}, "geometry": {"type": "Point", "coordinates": [-76.6978, 37.1656]}}, {"type": "Feature", "properties": {"name": "Virgil C. Summer Nuclear Generating Station", "category": "operating"}, "geometry": {"type": "Point", "coordinates": [-81.3147, 34.2986]}}]}